NORAD_CAT_ID,OBJECT_NAME,OBJECT_TYPE,EPOCH,MEAN_MOTION,ECCENTRICITY,INCLINATION,RA_OF_ASC_NODE,ARG_OF_PERICENTER,MEAN_ANOMALY,BSTAR,MEAN_MOTION_DOT,MEAN_MOTION_DDOT,TLE_LINE0,TLE_LINE1,TLE_LINE2,SEMIMAJOR_AXIS,PERIOD,APOGEE,PERIGEE,DECAYED
54086.0,STARLINK-5211,PAYLOAD,2022-12-10 21:39:38,15.73218298,0.0002754,53.2131,254.0542,14.6575,345.4524,0.00015712,0.00021506,0.0,0 STARLINK-5211,1 54086U 22136AM  22344.90253122  .00021506  00000-0  15712-3 0  9999,2 54086  53.2131 254.0542 0002754  14.6575 345.4524 15.73218298  8571,6727.843000000003,91.532,351.561,347.855,0.0
54086.0,STARLINK-5211,PAYLOAD,2022-12-11 03:45:34,15.73191571,0.0003711,53.2131,252.7959,11.8845,348.2262,0.00023033,0.00031823,0.0,0 STARLINK-5211,1 54086U 22136AM  22345.15665071  .00031823  00000-0  23033-3 0  9995,2 54086  53.2131 252.7959 0003711  11.8845 348.2262 15.73191571  8610,6727.919,91.534,352.281,347.287,0.0
54086.0,STARLINK-5211,PAYLOAD,2022-12-12 02:37:45,15.73215905,0.0003424,53.2128,248.0791,7.0065,353.1002,4.5302e-05,5.745e-05,0.0,0 STARLINK-5211,1 54086U 22136AM  22346.10955762  .00005745  00000-0  45302-4 0  9998,2 54086  53.2128 248.0791 0003424   7.0065 353.1002 15.73215905  8761,6727.85,91.532,352.01800000000014,347.411,0.0
54086.0,STARLINK-5211,PAYLOAD,2022-12-13 03:01:26,15.73211454,0.0003915,53.214,243.0462,15.4815,344.6324,5.1588e-05,6.628e-05,0.0,0 STARLINK-5211,1 54086U 22136AM  22347.12600596  .00006628  00000-0  51588-4 0  9997,2 54086  53.2140 243.0462 0003915  15.4815 344.6324 15.73211454  8921,6727.863,91.533,352.361,347.094,0.0
54086.0,STARLINK-5211,PAYLOAD,2022-12-13 10:38:50,15.73211357,0.0003779,53.2128,241.4767,12.706,347.4055,2.177e-05,2.434e-05,0.0,0 STARLINK-5211,1 54086U 22136AM  22347.44364264  .00002434  00000-0  21770-4 0  9992,2 54086  53.2128 241.4767 0003779  12.7060 347.4055 15.73211357  8505,6727.863,91.533,352.27,347.185,0.0
54086.0,STARLINK-5211,PAYLOAD,2022-12-14 01:53:38,15.73211044,0.0003786,53.2131,238.3324,14.4672,345.6456,1.7014e-05,1.766e-05,0.0,0 STARLINK-5211,1 54086U 22136AM  22348.07892059  .00001766  00000-0  17014-4 0  9993,2 54086  53.2131 238.3324 0003786  14.4672 345.6456 15.73211044  9070,6727.864000000001,91.533,352.276,347.182,0.0
54086.0,STARLINK-5211,PAYLOAD,2022-12-14 09:31:02,15.73217711,0.00038,53.2131,236.7605,15.6025,344.5112,2.7769e-05,3.279e-05,0.0,0 STARLINK-5211,1 54086U 22136AM  22348.39655637  .00003279  00000-0  27769-4 0  9996,2 54086  53.2131 236.7605 0003800  15.6025 344.5112 15.73217711  8653,6727.845,91.532,352.266,347.153,0.0
54086.0,STARLINK-5211,PAYLOAD,2022-12-15 02:17:19,15.73198691,0.0003749,53.2149,233.3019,12.7897,347.3217,-1.7172e-05,-3.034e-05,0.0,0 STARLINK-5211,1 54086U 22136AM  22349.09536659 -.00003034  00000-0 -17172-4 0  9994,2 54086  53.2149 233.3019 0003749  12.7897 347.3217 15.73198691  9238,6727.899,91.533,352.286,347.242,0.0
54086.0,STARLINK-5211,PAYLOAD,2022-12-15 12:57:39,15.73236926,0.0002975,53.2132,231.1009,29.9494,330.1696,5.7546e-05,7.475e-05,0.0,0 STARLINK-5211,1 54086U 22136AM  22349.54004505  .00007475  00000-0  57546-4 0  9994,2 54086  53.2132 231.1009 0002975  29.9494 330.1696 15.73236926  9301,6727.79,91.531,351.656,347.653,0.0
54086.0,STARLINK-5211,PAYLOAD,2022-12-15 20:35:03,15.73234252,0.0003752,53.2143,229.5296,11.1239,348.9863,5.1162e-05,6.574e-05,0.0,0 STARLINK-5211,1 54086U 22136AM  22349.85768230  .00006574  00000-0  51162-4 0  9997,2 54086  53.2143 229.5296 0003752  11.1239 348.9863 15.73234252  8881,6727.7980000000025,91.531,352.18699999999984,347.13800000000015,0.0
54086.0,STARLINK-5211,PAYLOAD,2022-12-16 01:09:30,15.73214992,0.0003922,53.2141,228.5861,18.4039,341.7122,-5.5099e-06,-1.399e-05,0.0,0 STARLINK-5211,1 54086U 22136AM  22350.04827219 -.00001399  00000-0 -55099-5 0  9999,2 54086  53.2141 228.5861 0003922  18.4039 341.7122 15.73214992  9387,6727.852,91.532,352.356,347.079,0.0
54086.0,STARLINK-5211,PAYLOAD,2022-12-16 08:46:54,15.73226518,0.0004308,53.2139,227.0128,24.4953,335.6271,3.1073e-05,3.744e-05,0.0,0 STARLINK-5211,1 54086U 22136AM  22350.36590674  .00003744  00000-0  31073-4 0  9995,2 54086  53.2139 227.0128 0004308  24.4953 335.6271 15.73226518  9435,6727.82,91.532,352.583,346.786,0.0
54086.0,STARLINK-5211,PAYLOAD,2022-12-16 20:58:44,15.73219769,0.0003536,53.2139,224.4993,12.5103,347.6004,3.451e-06,-1.39e-06,0.0,0 STARLINK-5211,1 54086U 22136AM  22350.87412390 -.00000139  00000-0  34510-5 0  9995,2 54086  53.2139 224.4993 0003536  12.5103 347.6004 15.73219769  9047,6727.839,91.532,352.083,347.325,0.0
54086.0,STARLINK-5211,PAYLOAD,2022-12-17 01:33:11,15.73184106,0.0003711,53.2139,223.5556,15.2635,344.8496,-8.2418e-05,-0.00012171,0.0,0 STARLINK-5211,1 54086U 22136AM  22351.06471900 -.00012171  00000-0 -82418-4 0  9998,2 54086  53.2139 223.5556 0003711  15.2635 344.8496 15.73184106  9542,6727.94,91.534,352.302,347.309,0.0
54086.0,STARLINK-5211,PAYLOAD,2022-12-17 18:19:29,15.73189802,0.0003703,53.214,220.0978,18.1049,342.0102,-2.2339e-05,-3.758e-05,0.0,0 STARLINK-5211,1 54086U 22136AM  22351.76353231 -.00003758  00000-0 -22339-4 0  9998,2 54086  53.2140 220.0978 0003703  18.1049 342.0102 15.73189802  9650,6727.924,91.534,352.281,347.298,0.0
54086.0,STARLINK-5211,PAYLOAD,2022-12-17 19:50:57,15.73185034,0.0003456,53.2139,219.7835,12.5736,347.537,-2.2243e-05,-3.743e-05,0.0,0 STARLINK-5211,1 54086U 22136AM  22351.82705962 -.00003743  00000-0 -22243-4 0  9995,2 54086  53.2139 219.7835 0003456  12.5736 347.5370 15.73185034  9190,6727.938,91.534,352.12800000000016,347.478,0.0
54086.0,STARLINK-5211,PAYLOAD,2022-12-18 00:25:24,15.732087900000002,0.0003794,53.2137,218.8393,20.1532,339.9637,8.0744e-05,0.0001073,0.0,0 STARLINK-5211,1 54086U 22136AM  22352.01764269  .00010730  00000-0  80744-4 0  9994,2 54086  53.2137 218.8393 0003794  20.1532 339.9637 15.73208790  9692,6727.87,91.533,352.288,347.18300000000005,0.0
54086.0,STARLINK-5211,PAYLOAD,2022-12-18 08:02:48,15.73194629,0.0003475,53.2138,217.2678,14.1901,345.9216,8.1042e-05,0.00010765,0.0,0 STARLINK-5211,1 54086U 22136AM  22352.33528818  .00010765  00000-0  81042-4 0  9997,2 54086  53.2138 217.2678 0003475  14.1901 345.9216 15.73194629  9742,6727.91,91.533,352.11300000000006,347.43800000000016,0.0
54086.0,STARLINK-5211,PAYLOAD,2022-12-18 21:46:08,15.73205394,0.0003444,53.2136,214.4401,6.9651,353.1416,7.2106e-05,9.513e-05,0.0,0 STARLINK-5211,1 54086U 22136AM  22352.90704134  .00009513  00000-0  72106-4 0  9997,2 54086  53.2136 214.4401 0003444   6.9651 353.1416 15.73205394  9363,6727.88,91.533,352.06199999999984,347.42800000000005,0.0
54086.0,STARLINK-5211,PAYLOAD,2022-12-19 00:49:06,15.73193104,0.0003548,53.2137,213.8104,4.9213,355.1841,1.6921e-05,1.751e-05,0.0,0 STARLINK-5211,1 54086U 22136AM  22353.03410019  .00001751  00000-0  16921-4 0  9997,2 54086  53.2137 213.8104 0003548   4.9213 355.1841 15.73193104  9857,6727.915,91.534,352.167,347.39300000000014,0.0
54086.0,STARLINK-5211,PAYLOAD,2022-12-19 22:09:48,15.73250602,0.0004499,53.2133,209.4124,7.4471,352.6615,0.00018492,0.00025476,0.0,0 STARLINK-5211,1 54086U 22136AM  22353.92347779  .00025476  00000-0  18492-3 0  9991,2 54086  53.2133 209.4124 0004499   7.4471 352.6615 15.73250602  9999,6727.751,91.53,352.64300000000014,346.589,0.0
54086.0,STARLINK-5211,PAYLOAD,2022-12-20 19:30:29,15.73230922,0.00022,53.2128,205.0084,28.5663,331.5478,-8.2102e-06,-1.775e-05,0.0,0 STARLINK-5211,1 54086U 22136AM  22354.81284666 -.00001775  00000-0 -82102-5 0  9994,2 54086  53.2128 205.0084 0002200  28.5663 331.5478 15.73230922 10139,6727.807,91.531,351.152,348.19199999999995,0.0
54086.0,STARLINK-5211,PAYLOAD,2022-12-20 21:01:58,15.73222388,0.0003116,53.2133,204.6951,16.4962,343.6159,-9.0781e-05,-0.00013359,0.0,0 STARLINK-5211,1 54086U 22136AM  22354.87637550 -.00013359  00000-0 -90781-4 0  9996,2 54086  53.2133 204.6951 0003116  16.4962 343.6159 15.73222388 10146,6727.831,91.532,351.793,347.6,0.0
54086.0,STARLINK-5211,PAYLOAD,2022-12-21 13:48:17,15.73168241,0.0003071,53.213,201.2344,17.9548,342.1581,0.00010272,0.00013801,0.0,0 STARLINK-5211,1 54086U 22136AM  22355.57520519  .00013801  00000-0  10272-3 0  9996,2 54086  53.2130 201.2344 0003071  17.9548 342.1581 15.73168241 10250,6727.986,91.535,351.917,347.785,0.0
54086.0,STARLINK-5211,PAYLOAD,2022-12-21 22:57:11,15.73145868,0.0003143,53.2127,199.3481,13.8495,346.2611,-8.295700000000001e-06,-1.784e-05,0.0,0 STARLINK-5211,1 54086U 22136AM  22355.95638848 -.00001784  00000-0 -82957-5 0  9993,2 54086  53.2127 199.3481 0003143  13.8495 346.2611 15.73145868 10317,6728.05,91.536,352.029,347.8,0.0
54086.0,STARLINK-5211,PAYLOAD,2022-12-22 06:34:36,15.73164933,0.0003392,53.2133,197.7788,1.405,358.6979,0.00012815,0.00017377,0.0,0 STARLINK-5211,1 54086U 22136AM  22356.27403705  .00017377  00000-0  12815-3 0  9998,2 54086  53.2133 197.7788 0003392   1.4050 358.6979 15.73164933  9891,6727.995,91.535,352.142,347.57800000000015,0.0
54086.0,STARLINK-5211,PAYLOAD,2022-12-22 14:12:01,15.73181966,0.000335,53.2128,196.2046,357.7962,2.3043,0.00016995,0.00023282,0.0,0 STARLINK-5211,1 54086U 22136AM  22356.59168115  .00023282  00000-0  16995-3 0  9991,2 54086  53.2128 196.2046 0003350 357.7962   2.3043 15.73181966 10419,6727.946999999999,91.534,352.065,347.55800000000005,0.0
54086.0,STARLINK-5211,PAYLOAD,2022-12-22 17:14:58,15.73221486,0.000407,53.212,195.5712,10.9985,349.1124,0.00034471,0.00048095,0.0,0 STARLINK-5211,1 54086U 22136AM  22356.71873583  .00048095  00000-0  34471-3 0  9995,2 54086  53.2120 195.5712 0004070  10.9985 349.1124 15.73221486  9968,6727.834,91.532,352.43699999999984,346.961,0.0
54086.0,STARLINK-5211,PAYLOAD,2022-12-22 23:20:53,15.73268374,0.0003569,53.2121,194.3199,12.6376,347.4733,0.00045683,0.00064189,0.0,0 STARLINK-5211,1 54086U 22136AM  22356.97283850  .00064189  00000-0  45683-3 0  9994,2 54086  53.2121 194.3199 0003569  12.6376 347.4733 15.73268374 10472,6727.7,91.529,351.966,347.164,0.0
